[{"OBJECT_NAME":"STARLINK-3692","OBJECT_ID":"2022-025C","EPOCH":"2026-03-09T04:09:32.813280","MEAN_MOTION":15.3018251,"ECCENTRICITY":0.00014023,"INCLINATION":53.1631,"RA_OF_ASC_NODE":15.9414,"ARG_OF_PERICENTER":86.2996,"MEAN_ANOMALY":273.8165,"EPHEMERIS_TYPE":0,"CLASSIFICATION_TYPE":"U","NORAD_CAT_ID":51958,"ELEMENT_SET_NO":999,"REV_AT_EPOCH":22109,"BSTAR":6.68828e-7,"MEAN_MOTION_DOT":-3.39e-6,"MEAN_MOTION_DDOT":0},{"OBJECT_NAME":"OBJECT BC","OBJECT_ID":"2025-313BC","EPOCH":"2026-03-09T04:33:08.504064","MEAN_MOTION":15.29126358,"ECCENTRICITY":0.00084789,"INCLINATION":97.3985,"RA_OF_ASC_NODE":144.811,"ARG_OF_PERICENTER":328.9209,"MEAN_ANOMALY":31.1528,"EPHEMERIS_TYPE":0,"CLASSIFICATION_TYPE":"U","NORAD_CAT_ID":67298,"ELEMENT_SET_NO":999,"REV_AT_EPOCH":789,"BSTAR":0.0026410397,"MEAN_MOTION_DOT":0.00075331,"MEAN_MOTION_DDOT":0}]
